[{"OBJECT_NAME":"EAGLET-I","OBJECT_ID":"2018-099AJ","EPOCH":"2026-03-09T16:28:56.807904","MEAN_MOTION":15.12108145,"ECCENTRICITY":0.00104863,"INCLINATION":97.4369,"RA_OF_ASC_NODE":120.9821,"ARG_OF_PERICENTER":336.8524,"MEAN_ANOMALY":23.2233,"EPHEMERIS_TYPE":0,"CLASSIFICATION_TYPE":"U","NORAD_CAT_ID":43790,"ELEMENT_SET_NO":999,"REV_AT_EPOCH":39729,"BSTAR":0.0003526184,"MEAN_MOTION_DOT":6.017e-5,"MEAN_MOTION_DDOT":0},{"OBJECT_NAME":"STARLINK-3364","OBJECT_ID":"2022-005BA","EPOCH":"2026-03-09T21:35:22.207776","MEAN_MOTION":15.08831715,"ECCENTRICITY":0.00011998,"INCLINATION":53.2179,"RA_OF_ASC_NODE":307.7954,"ARG_OF_PERICENTER":95.4715,"MEAN_ANOMALY":264.6414,"EPHEMERIS_TYPE":0,"CLASSIFICATION_TYPE":"U","NORAD_CAT_ID":51152,"ELEMENT_SET_NO":999,"REV_AT_EPOCH":22863,"BSTAR":-4.0805639e-5,"MEAN_MOTION_DOT":-9.37e-6,"MEAN_MOTION_DDOT":0}]
